[{"OBJECT_NAME":"STARLINK-36329","OBJECT_ID":"2026-026U","EPOCH":"2026-03-09T22:00:01.999584","MEAN_MOTION":15.50051843,"ECCENTRICITY":0.00015691,"INCLINATION":97.2841,"RA_OF_ASC_NODE":123.562,"ARG_OF_PERICENTER":77.7397,"MEAN_ANOMALY":270.0665,"EPHEMERIS_TYPE":0,"CLASSIFICATION_TYPE":"U","NORAD_CAT_ID":67739,"ELEMENT_SET_NO":999,"REV_AT_EPOCH":535,"BSTAR":-0.037726125,"MEAN_MOTION_DOT":-0.0186882,"MEAN_MOTION_DDOT":0},{"OBJECT_NAME":"BREEZE-M DEB","OBJECT_ID":"2006-006AG","EPOCH":"2026-03-06T23:04:01.724448","MEAN_MOTION":5.65148591,"ECCENTRICITY":0.48868931,"INCLINATION":51.6134,"RA_OF_ASC_NODE":305.5121,"ARG_OF_PERICENTER":201.8507,"MEAN_ANOMALY":126.9985,"EPHEMERIS_TYPE":0,"CLASSIFICATION_TYPE":"U","NORAD_CAT_ID":32493,"ELEMENT_SET_NO":999,"REV_AT_EPOCH":37616,"BSTAR":0.0040172866,"MEAN_MOTION_DOT":5.16e-5,"MEAN_MOTION_DDOT":0}]
